STARLINK-3752           
1 52312U 22041BD  26068.32367942  .00000539  00000+0  51938-4 0  9996
2 52312  53.2169  90.7155 0001400  84.1617 275.9535 15.08838456215811
LEMUR-2-KREMPEL-BRO2    
1 63353U 25061C   26068.86379735  .00007837  00000+0  44347-3 0  9993
2 63353  97.5616  45.5365 0017925 236.8576 123.0936 15.13192951 52586
